STARLINK-35823          
1 66360U 25254N   25328.16668980 -.00057856  00000+0 -39321-3 0  9996
2 66360  53.1584   7.0936 0000900 102.9110  17.2206 15.74203618  3937
STARLINK-35813          
1 66361U 25254P   25328.16668980 -.00066846  00000+0 -45512-3 0  9995
2 66361  53.1586   7.0982 0001126 109.2654   8.9400 15.74220394  3938
STARLINK-35822          
1 66362U 25254Q   25328.16668980 -.00021629  00000+0 -14375-3 0  9999
2 66362  53.1585   7.0858 0001162  92.1451  31.8244 15.74190805  3939
STARLINK-35806          
1 66363U 25254R   25328.16668980 -.00020042  00000+0 -13286-3 0  9998
2 66363  53.1585   7.0898 0001206 112.9766   9.0712 15.74190265  3907
STARLINK-35797          
1 66364U 25254S   25328.16668980 -.00035802  00000+0 -24103-3 0  9999
2 66364  53.1585   7.0813 0001082  76.7788  49.0987 15.74204276  3937
STARLINK-35827          
1 66365U 25254T   25328.16668980 -.00052435  00000+0 -35567-3 0  9997
2 66365  53.1585   7.0741 0001084 103.0697  26.6470 15.74207008  3904
STARLINK-35845          
1 66366U 25254U   25328.16668980 -.00049247  00000+0 -33366-3 0  9990
2 66366  53.1584   7.0777 0001072  96.3763  31.4182 15.74207323  3935
STARLINK-35846          
1 66367U 25254V   25328.16668980 -.00032854  00000+0 -22081-3 0  9999
2 66367  53.1584   7.0695 0001192 110.1691  21.4626 15.74198409  3883
STARLINK-34861          
1 66368U 25254W   25328.01583939  .00201778  00000+0  13468-2 0  9993
2 66368  53.1581   7.8096 0000789  69.3644 290.7460 15.74232080  2732
STARLINK-35795          
1 66369U 25254X   25328.16668980 -.00026306  00000+0 -17584-3 0  9998
2 66369  53.1584   7.0648 0001257  73.3996  60.1536 15.74193027  3884
STARLINK-35824          
1 66370U 25254Y   25328.16668980 -.00088645  00000+0 -60629-3 0  9992
2 66370  53.1583   7.0570 0001195  92.0371  45.3325 15.74228472  3902
STARLINK-35804          
1 66371U 25254Z   25328.01482446  .00189771  00000+0  12688-2 0  9999
2 66371  53.1582   7.8030 0000639  62.6865 297.4219 15.74230026  2734
