CCSDS_OMM_VERS = 2.0
CREATION_DATE  = 
ORIGINATOR     = 

OBJECT_NAME    = STARLINK-35823
OBJECT_ID      = 2025-254N
CENTER_NAME    = EARTH
REF_FRAME      = TEME
TIME_SYSTEM    = UTC
MEAN_ELEMENT_THEORY = SGP/SGP4

EPOCH          = 2025-11-24T04:00:01.998720
MEAN_MOTION    = 15.74203618
ECCENTRICITY   = .00009
INCLINATION    = 53.1584
RA_OF_ASC_NODE = 7.0936
ARG_OF_PERICENTER = 102.9110
MEAN_ANOMALY   = 17.2206

EPHEMERIS_TYPE = 0
CLASSIFICATION_TYPE = U
NORAD_CAT_ID   = 66360
ELEMENT_SET_NO = 999
REV_AT_EPOCH   = 393
BSTAR          = -.39321E-3
MEAN_MOTION_DOT = -.57856E-3
MEAN_MOTION_DDOT = 0

CCSDS_OMM_VERS = 2.0
CREATION_DATE  = 
ORIGINATOR     = 

OBJECT_NAME    = STARLINK-35813
OBJECT_ID      = 2025-254P
CENTER_NAME    = EARTH
REF_FRAME      = TEME
TIME_SYSTEM    = UTC
MEAN_ELEMENT_THEORY = SGP/SGP4

EPOCH          = 2025-11-24T04:00:01.998720
MEAN_MOTION    = 15.74220394
ECCENTRICITY   = .0001126
INCLINATION    = 53.1586
RA_OF_ASC_NODE = 7.0982
ARG_OF_PERICENTER = 109.2654
MEAN_ANOMALY   = 8.9400

EPHEMERIS_TYPE = 0
CLASSIFICATION_TYPE = U
NORAD_CAT_ID   = 66361
ELEMENT_SET_NO = 999
REV_AT_EPOCH   = 393
BSTAR          = -.45512E-3
MEAN_MOTION_DOT = -.66846E-3
MEAN_MOTION_DDOT = 0

CCSDS_OMM_VERS = 2.0
CREATION_DATE  = 
ORIGINATOR     = 

OBJECT_NAME    = STARLINK-35822
OBJECT_ID      = 2025-254Q
CENTER_NAME    = EARTH
REF_FRAME      = TEME
TIME_SYSTEM    = UTC
MEAN_ELEMENT_THEORY = SGP/SGP4

EPOCH          = 2025-11-24T04:00:01.998720
MEAN_MOTION    = 15.74190805
ECCENTRICITY   = .0001162
INCLINATION    = 53.1585
RA_OF_ASC_NODE = 7.0858
ARG_OF_PERICENTER = 92.1451
MEAN_ANOMALY   = 31.8244

EPHEMERIS_TYPE = 0
CLASSIFICATION_TYPE = U
NORAD_CAT_ID   = 66362
ELEMENT_SET_NO = 999
REV_AT_EPOCH   = 393
BSTAR          = -.14375E-3
MEAN_MOTION_DOT = -.21629E-3
MEAN_MOTION_DDOT = 0

CCSDS_OMM_VERS = 2.0
CREATION_DATE  = 
ORIGINATOR     = 

OBJECT_NAME    = STARLINK-35806
OBJECT_ID      = 2025-254R
CENTER_NAME    = EARTH
REF_FRAME      = TEME
TIME_SYSTEM    = UTC
MEAN_ELEMENT_THEORY = SGP/SGP4

EPOCH          = 2025-11-24T04:00:01.998720
MEAN_MOTION    = 15.74190265
ECCENTRICITY   = .0001206
INCLINATION    = 53.1585
RA_OF_ASC_NODE = 7.0898
ARG_OF_PERICENTER = 112.9766
MEAN_ANOMALY   = 9.0712

EPHEMERIS_TYPE = 0
CLASSIFICATION_TYPE = U
NORAD_CAT_ID   = 66363
ELEMENT_SET_NO = 999
REV_AT_EPOCH   = 390
BSTAR          = -.13286E-3
MEAN_MOTION_DOT = -.20042E-3
MEAN_MOTION_DDOT = 0

CCSDS_OMM_VERS = 2.0
CREATION_DATE  = 
ORIGINATOR     = 

OBJECT_NAME    = STARLINK-35797
OBJECT_ID      = 2025-254S
CENTER_NAME    = EARTH
REF_FRAME      = TEME
TIME_SYSTEM    = UTC
MEAN_ELEMENT_THEORY = SGP/SGP4

EPOCH          = 2025-11-24T04:00:01.998720
MEAN_MOTION    = 15.74204276
ECCENTRICITY   = .0001082
INCLINATION    = 53.1585
RA_OF_ASC_NODE = 7.0813
ARG_OF_PERICENTER = 76.7788
MEAN_ANOMALY   = 49.0987

EPHEMERIS_TYPE = 0
CLASSIFICATION_TYPE = U
NORAD_CAT_ID   = 66364
ELEMENT_SET_NO = 999
REV_AT_EPOCH   = 393
BSTAR          = -.24103E-3
MEAN_MOTION_DOT = -.35802E-3
MEAN_MOTION_DDOT = 0

CCSDS_OMM_VERS = 2.0
CREATION_DATE  = 
ORIGINATOR     = 

OBJECT_NAME    = STARLINK-35827
OBJECT_ID      = 2025-254T
CENTER_NAME    = EARTH
REF_FRAME      = TEME
TIME_SYSTEM    = UTC
MEAN_ELEMENT_THEORY = SGP/SGP4

EPOCH          = 2025-11-24T04:00:01.998720
MEAN_MOTION    = 15.74207008
ECCENTRICITY   = .0001084
INCLINATION    = 53.1585
RA_OF_ASC_NODE = 7.0741
ARG_OF_PERICENTER = 103.0697
MEAN_ANOMALY   = 26.6470

EPHEMERIS_TYPE = 0
CLASSIFICATION_TYPE = U
NORAD_CAT_ID   = 66365
ELEMENT_SET_NO = 999
REV_AT_EPOCH   = 390
BSTAR          = -.35567E-3
MEAN_MOTION_DOT = -.52435E-3
MEAN_MOTION_DDOT = 0

CCSDS_OMM_VERS = 2.0
CREATION_DATE  = 
ORIGINATOR     = 

OBJECT_NAME    = STARLINK-35845
OBJECT_ID      = 2025-254U
CENTER_NAME    = EARTH
REF_FRAME      = TEME
TIME_SYSTEM    = UTC
MEAN_ELEMENT_THEORY = SGP/SGP4

EPOCH          = 2025-11-24T04:00:01.998720
MEAN_MOTION    = 15.74207323
ECCENTRICITY   = .0001072
INCLINATION    = 53.1584
RA_OF_ASC_NODE = 7.0777
ARG_OF_PERICENTER = 96.3763
MEAN_ANOMALY   = 31.4182

EPHEMERIS_TYPE = 0
CLASSIFICATION_TYPE = U
NORAD_CAT_ID   = 66366
ELEMENT_SET_NO = 999
REV_AT_EPOCH   = 393
BSTAR          = -.33366E-3
MEAN_MOTION_DOT = -.49247E-3
MEAN_MOTION_DDOT = 0

CCSDS_OMM_VERS = 2.0
CREATION_DATE  = 
ORIGINATOR     = 

OBJECT_NAME    = STARLINK-35846
OBJECT_ID      = 2025-254V
CENTER_NAME    = EARTH
REF_FRAME      = TEME
TIME_SYSTEM    = UTC
MEAN_ELEMENT_THEORY = SGP/SGP4

EPOCH          = 2025-11-24T04:00:01.998720
MEAN_MOTION    = 15.74198409
ECCENTRICITY   = .0001192
INCLINATION    = 53.1584
RA_OF_ASC_NODE = 7.0695
ARG_OF_PERICENTER = 110.1691
MEAN_ANOMALY   = 21.4626

EPHEMERIS_TYPE = 0
CLASSIFICATION_TYPE = U
NORAD_CAT_ID   = 66367
ELEMENT_SET_NO = 999
REV_AT_EPOCH   = 388
BSTAR          = -.22081E-3
MEAN_MOTION_DOT = -.32854E-3
MEAN_MOTION_DDOT = 0

CCSDS_OMM_VERS = 2.0
CREATION_DATE  = 
ORIGINATOR     = 

OBJECT_NAME    = STARLINK-34861
OBJECT_ID      = 2025-254W
CENTER_NAME    = EARTH
REF_FRAME      = TEME
TIME_SYSTEM    = UTC
MEAN_ELEMENT_THEORY = SGP/SGP4

EPOCH          = 2025-11-24T00:22:48.523296
MEAN_MOTION    = 15.74232080
ECCENTRICITY   = .0000789
INCLINATION    = 53.1581
RA_OF_ASC_NODE = 7.8096
ARG_OF_PERICENTER = 69.3644
MEAN_ANOMALY   = 290.7460

EPHEMERIS_TYPE = 0
CLASSIFICATION_TYPE = U
NORAD_CAT_ID   = 66368
ELEMENT_SET_NO = 999
REV_AT_EPOCH   = 273
BSTAR          = .13468E-2
MEAN_MOTION_DOT = .201778E-2
MEAN_MOTION_DDOT = 0

CCSDS_OMM_VERS = 2.0
CREATION_DATE  = 
ORIGINATOR     = 

OBJECT_NAME    = STARLINK-35795
OBJECT_ID      = 2025-254X
CENTER_NAME    = EARTH
REF_FRAME      = TEME
TIME_SYSTEM    = UTC
MEAN_ELEMENT_THEORY = SGP/SGP4

EPOCH          = 2025-11-24T04:00:01.998720
MEAN_MOTION    = 15.74193027
ECCENTRICITY   = .0001257
INCLINATION    = 53.1584
RA_OF_ASC_NODE = 7.0648
ARG_OF_PERICENTER = 73.3996
MEAN_ANOMALY   = 60.1536

EPHEMERIS_TYPE = 0
CLASSIFICATION_TYPE = U
NORAD_CAT_ID   = 66369
ELEMENT_SET_NO = 999
REV_AT_EPOCH   = 388
BSTAR          = -.17584E-3
MEAN_MOTION_DOT = -.26306E-3
MEAN_MOTION_DDOT = 0

CCSDS_OMM_VERS = 2.0
CREATION_DATE  = 
ORIGINATOR     = 

OBJECT_NAME    = STARLINK-35824
OBJECT_ID      = 2025-254Y
CENTER_NAME    = EARTH
REF_FRAME      = TEME
TIME_SYSTEM    = UTC
MEAN_ELEMENT_THEORY = SGP/SGP4

EPOCH          = 2025-11-24T04:00:01.998720
MEAN_MOTION    = 15.74228472
ECCENTRICITY   = .0001195
INCLINATION    = 53.1583
RA_OF_ASC_NODE = 7.0570
ARG_OF_PERICENTER = 92.0371
MEAN_ANOMALY   = 45.3325

EPHEMERIS_TYPE = 0
CLASSIFICATION_TYPE = U
NORAD_CAT_ID   = 66370
ELEMENT_SET_NO = 999
REV_AT_EPOCH   = 390
BSTAR          = -.60629E-3
MEAN_MOTION_DOT = -.88645E-3
MEAN_MOTION_DDOT = 0

CCSDS_OMM_VERS = 2.0
CREATION_DATE  = 
ORIGINATOR     = 

OBJECT_NAME    = STARLINK-35804
OBJECT_ID      = 2025-254Z
CENTER_NAME    = EARTH
REF_FRAME      = TEME
TIME_SYSTEM    = UTC
MEAN_ELEMENT_THEORY = SGP/SGP4

EPOCH          = 2025-11-24T00:21:20.833344
MEAN_MOTION    = 15.74230026
ECCENTRICITY   = .0000639
INCLINATION    = 53.1582
RA_OF_ASC_NODE = 7.8030
ARG_OF_PERICENTER = 62.6865
MEAN_ANOMALY   = 297.4219

EPHEMERIS_TYPE = 0
CLASSIFICATION_TYPE = U
NORAD_CAT_ID   = 66371
ELEMENT_SET_NO = 999
REV_AT_EPOCH   = 273
BSTAR          = .12688E-2
MEAN_MOTION_DOT = .189771E-2
MEAN_MOTION_DDOT = 0

